satname,norad_id,inclination_deg,eccentricity,mean_motion_rev_per_day,perigee_km,apogee_km,l1,l2
STARLINK-1411,45706,53.0549,0.0001169,15.35728218,457.9591088748193,459.5575750057651,1 45706U 20035BB  25287.33335648  .00109761  00000+0  30792-2 0  9997,2 45706  53.0549 323.2453 0001169  62.9379 236.1703 15.35728218  5611
STARLINK-1423,45710,53.0553,0.0001523,15.06392619,546.1794457019141,548.288913763261,1 45710U 20035BF  25287.27272752 -.00000854  00000+0 -38427-4 0  9991,2 45710  53.0553 333.9148 0001523  84.5242 275.5921 15.06392619297086
STARLINK-1433,45711,53.0549,0.0001545,15.06383821,546.1911706735291,548.3311187002373,1 45711U 20035BG  25287.32063621  .00000222  00000+0  33807-4 0  9995,2 45711  53.0549 333.6965 0001545  89.8746 270.2420 15.06383821297088
STARLINK-1434,45712,53.0511,0.0002403,15.13756415,523.097796792902,526.4153274388545,1 45712U 20035BH  25287.31115986  .00038095  00000+0  20937-2 0  9994,2 45712  53.0511 330.8861 0002403 355.7589   4.3383 15.13756415297137
STARLINK-1465,45731,53.0531,6.78e-05,15.06392144,546.7660952867545,547.705175816136,1 45731U 20038B   25286.95572673 -.00003056  00000+0 -18644-3 0  9991,2 45731  53.0531 175.3330 0000678  58.7910 301.3145 15.06392144294076
STARLINK-1471,45735,53.0499,0.0003319,15.39964831,443.9482150545764,448.4782187285491,1 45735U 20038F   25287.23076755  .00021066  00000+0  52908-3 0  9997,2 45735  53.0499 118.5314 0003319 124.4694 235.6624 15.39964831294906
STARLINK-1474,45738,53.0384,0.0003845,15.63879623,373.8657272078335,379.06001450852364,1 45738U 20038J   25287.16029063  .00075316  00000+0  78516-3 0  9992,2 45738  53.0384  79.3423 0003845 214.1113 145.9655 15.63879623295442
STARLINK-1475,45739,53.0517,0.0002858,15.69059183,359.66356934736086,363.5159971766734,1 45739U 20038K   25287.33335648  .00259392  00000+0  21359-2 0  9991,2 45739  53.0517  45.9275 0002858 256.1137 253.3792 15.69059183  5969
STARLINK-1480,45741,53.0549,0.0001535,15.06404342,546.1352114046731,548.261289326535,1 45741U 20038M   25287.06999523  .00003703  00000+0  26732-3 0  9996,2 45741  53.0549 174.8246 0001535  99.5665 260.5497 15.06404342294103
STARLINK-1500,45744,53.0402,0.0004998,15.26642971,482.4257091246136,489.2869568602737,1 45744U 20038Q   25287.02380540  .00020365  00000+0  77734-3 0  9999,2 45744  53.0402 156.3820 0004998 128.2186 231.9262 15.26642971294354
STARLINK-1504,45746,53.0279,0.0006556,15.37601526,448.72551763101,457.68277214018417,1 45746U 20038S   25287.03894880  .00083412  00000+0  22120-2 0  9999,2 45746  53.0279 122.4368 0006556 121.9555 238.2085 15.37601526294829
STARLINK-1506,45747,53.0493,0.0004434,15.20668109,500.7726769937235,506.87560013140137,1 45747U 20038T   25287.04224209  .00009976  00000+0  46252-3 0  9999,2 45747  53.0493 158.0307 0004434 153.2214 206.9011 15.20668109294338
STARLINK-1464,45751,53.0546,0.0001537,15.06406281,546.1278845302095,548.2567307593799,1 45751U 20038X   25287.00548285  .00006039  00000+0  42389-3 0  9997,2 45751  53.0546 155.1113 0001537 106.3905 253.7253 15.06406281294379
STARLINK-1477,45754,53.0519,0.0001415,15.06401982,546.2255474389958,548.1854193617992,1 45754U 20038AA  25287.02023163  .00008953  00000+0  61913-3 0  9996,2 45754  53.0519 155.0422 0001415  91.8130 268.3021 15.06401982294375
STARLINK-1478,45755,53.0522,0.000148,15.06393597,546.2062277896102,548.2561367715653,1 45755U 20038AB  25287.03866475  .00000156  00000+0  29363-4 0  9990,2 45755  53.0522 154.9624 0001480  85.2942 274.8216 15.06393597294361
STARLINK-1484,45756,53.0173,0.0002718,15.5713812,394.10329599335273,397.7856866920465,1 45756U 20038AC  25286.69404269  .00058634  00000+0  79441-3 0  9996,2 45756  53.0173  68.8522 0002718 179.9960 180.1051 15.57138120295542
STARLINK-1493,45759,53.0496,0.0001491,15.06392467,546.2020726821802,548.2672185068959,1 45759U 20038AF  25287.02760515  .00007398  00000+0  51511-3 0  9995,2 45759  53.0496 155.0117 0001491  97.6198 262.4960 15.06392467294360
STARLINK-1494,45760,53.0547,8.27e-05,15.49822095,416.6840720060727,417.80802836257317,1 45760U 20038AG  25287.00005787  .00108774  00000+0  19019-2 0  9994,2 45760  53.0547 145.7150 0000827  80.5317 254.6654 15.49822095  5813
STARLINK-1502,45764,53.0549,8.39e-05,15.06408874,546.6033260777313,547.7653950020294,1 45764U 20038AL  25286.92807703  .00005270  00000+0  37235-3 0  9994,2 45764  53.0549 155.4561 0000839  78.6149 281.4935 15.06408874294365
STARLINK-1470,45772,53.0493,0.0005098,15.16328706,513.4325540234613,520.4627823511437,1 45772U 20038AU  25287.03946979  .00023313  00000+0  11999-2 0  9991,2 45772  53.0493 128.7315 0005098 140.0275 220.1094 15.16328706294742
STARLINK-1482,45773,53.0525,0.0001461,15.06410559,546.167407616801,548.1909850093643,1 45773U 20038AV  25286.95940356  .00001941  00000+0  14914-3 0  9999,2 45773  53.0525 135.3166 0001461  98.1095 262.0060 15.06410559294644
STARLINK-1485,45774,53.0421,0.000283,15.92386611,293.7176088171009,297.49494751254224,1 45774U 20038AW  25287.33335648  .00501781  10957-3  14571-2 0  9996,2 45774  53.0421  72.8183 0002830 306.0110 250.2186 15.92386611  6010
STARLINK-1496,45780,53.0524,0.0001393,15.06413339,546.205980766832,548.1353714854004,1 45780U 20038BC  25287.05892695 -.00001904  00000+0 -10891-3 0  9992,2 45780  53.0524 134.8690 0001393 101.5650 258.5495 15.06413339294648
STARLINK-1497,45781,53.0418,0.000967,15.48531447,414.4465526727772,427.5961248999902,1 45781U 20038BD  25287.33335648  .00221007  00000+0  39716-2 0  9996,2 45781  53.0418  84.5020 0009670 166.6454  30.0783 15.48531447  5919
STARLINK-1510,45784,53.034,0.0004799,15.63653159,373.8731891234984,380.35688002628376,1 45784U 20038BG  25287.33335648  .00220680  00000+0  22690-2 0  9998,2 45784  53.0340  62.6031 0004799 122.0249  95.6852 15.63653159  5848
STARLINK-1513,45786,53.0552,0.0001545,15.06403617,546.1305077369207,548.2704370158845,1 45786U 20038BJ  25286.88936992  .00001983  00000+0  15198-3 0  9997,2 45786  53.0552 135.6314 0001545  87.6957 272.4209 15.06403617294635
STARLINK-1522,46027,53.052,0.0001453,15.06401895,546.1994977407148,548.2120023438774,1 46027U 20055A   25286.80366726  .00002434  00000+0  18225-3 0  9995,2 46027  53.0520  66.0119 0001453  86.6113 273.5042 15.06401895286746
STARLINK-1523,46028,53.0553,9.74e-05,15.06394355,546.5543284696005,547.9033897389536,1 46028U 20055B   25287.08380912  .00000829  00000+0  74509-4 0  9994,2 46028  53.0553  64.7576 0000974  89.5970 270.5131 15.06394355286800
